"organization_id","phone","name","email","address","city","country"
"82003","","","1@1-ix.net","","",""
"82001","","","1@1-ix.net","","",""
"70781","+1 602 935 9850","","noc@48ix.net","","",""
"70781","+1 602 935 9850","","ar@48ix.net","","",""
"85982","+1 877 321 1662","","ixp@accurix.net","","",""
"85982","+1 877 352 6105","","billing@accurix.net","","",""
"85982","+1 613 518 4025","","ixp@accurix.net","","",""
"85982","+1 613 518 4025","","billing@accurix.net","","",""
"83686","+243819919742","","admin@united.cd","","",""
"83686","+243819919742","","info@united.cd","","",""
"359","Australia:1300 653 132, international: +61 89200 6141","","support@ix.asn.au","","",""
"359","Australia:1300 653 132, International: +61 89200 6141","","accounts@ix.asn.au","","",""
"359","Australia:1300 793 320, International: +61 89200 4980","","noc@ix.asn.au","","",""
"359","Australia: 1300 653 132, International: +61 89200 6141","","support@ix.asn.au","","",""
"359","Australia: 1300 653 132, International: +61 89200 6141","","accounts@ix.asn.au","","",""
"359","Australia: 1300 793 320, International: +61 89200 4980","","noc@ix.asn.au","","",""
"82000","+2348179918846","","obinna.adumike@af-cix.net","","",""
"473","+555 1 555 1234","","support@ixp.ht","","",""
"473","support@ixp.ht","","support@ixp.ht","","",""
"473","+555 1 555 1234","","no-reply@ixp.ht","","",""
"473","noc@ixp.ht","","no-reply@ixp.ht","","",""
"558","+64 9888 9221","","support@ix.nz","","",""
"558","+64 9888 9221","","accounts@ix.nz","","",""
"558","+64 9888 9221","","noc@ix.nz","","",""
"9","","","noc@ams-ix.net","","",""
"91","","","noc@ams-ix.net","","",""
"92","","","noc@ams-ix.net","","",""
"78400","+913366573248","","noc@kol.ams-ix.net","","",""
"78400","+31203058999","","info@ams-ix.net","","",""
"587","","","noc@ams-ix.in","","",""
"510","","","noc@us.ams-ix.net","","",""
"511","","","noc@us.ams-ix.net","","",""
"10622","+355-684120049","","noc@anix.al","","",""
"10622","","","billing@anix.al","","",""
"10622","+355-684120049","","support@anix.al","","",""
"10622","+39 0644486380","","noc@anix.al","","",""
"10622","noc@anix.al","","noc@anix.al","","",""
"10622","+555 1 555 1234","","noc@anix.al","","",""
"75299","+593982450062/+593992305407","","noc@aprosva.ec","","",""
"75299","noc@aprosva.ec","","noc@aprosva.ec","","",""
"79597","+5491152637456","","noc@cabase.org.ar","","",""
"79597","+5491152637456","","info@cabase.org.ar","","",""
"72356","+49 69 1730902 11","","support@de-cix.net","","",""
"69301","+4969173090211","","support@de-cix.net","","",""
"130","+33 7 61 02 91 86","","noc@auvernix.org","","",""
"130","+33 7 61 02 91 86","","contact@auvernix.org","","",""
"723","+370 5 274 5444","","helpdesk@balt.net","","",""
"122","+662 107 1538","","support@bknix.co.th","","",""
"122","+662 107 1538","","acc@bknix.co.th","","",""
"70046","+662 107 1538","","support@bknix.co.th","","",""
"70046","+662 107 1538","","acc@bknix.co.th","","",""
"81701","","","noc@banyumasix.id","","",""
"81701","","","peering@banyumasix.id","","",""
"36734","+62-811393073","","peering@batamix.net","","",""
"36734","+62 811 393 073","","peering@batamix.net","","",""
"36734","+62-811301131","","peering@batamix.net","","",""
"36734","+62 81130 1131","","noc@batamix.net","","",""
"36734","noc@batamix.net","","noc@batamix.net","","",""
"36734","+62 81130 1131","","peering@batamix.net","","",""
"36734","peering@batamix.net","","peering@batamix.net","","",""
"77692","+81368899257","","bbix-sales@bbix.net""","","",""
"29","+49 17 13 89 71 82","","noc@bcix.de","","",""
"29","+49 30 39 00 16 60","","noc@bcix.de","","",""
"29","+49 30 2332195 55","","noc@bcix.de","","",""
"29","+49 30 39 00 16 60","","billing@bcix.de","","",""
"71788","+49 69 1730 902 11","","support@de-cix.net","","",""
"55715","+44 7535 777 785","","noc@bfdix.com","","",""
"55715","noc@bfdix.com","","noc@bfdix.com","","",""
"55715","+44 7535 777 785","","noc@bfd-ix.net","","",""
"55715","noc@bfd-ix.net","","noc@bfd-ix.net","","",""
"71159","+22676451414","","noc@bfix.bf","","",""
"71159","noc@bfix.bf","","noc@bfix.bf","","",""
"537","+22676451414","","noc@bfix.bf","","",""
"537","noc@bfix.bf","","noc@bfix.bf","","",""
"47","+359 88 48 15669","","noc@bix.bg","","",""
"47","+359 89 5491693","","finance@bix.bg","","",""
"11","+32 2 790 33 01","","servicedesk@bnix.net","","",""
"71527","+4969173090211","","support@de-cix.net","","",""
"77412","","","reseaux@canl.net","","",""
"264","+27 01 050 1200","","no-reply@inx.net.za","","",""
"264","27 01 050 1200","","no-reply@inx.net.za","","",""
"264","+27 01 050 1200","","noc@inx.net.za","","",""
"264","27 01 050 1200","","noc@inx.net.za","","",""
"264","+27 11 568 1160","","noc@inx.net.za","","",""
"264","27 11 568 1160","","noc@inx.net.za","","",""
"18","+34 932 056 464","","catnix@suport.csuc.cat","","",""
"18","+34 932 056 464","","caterina.parals@csuc.cat","","",""
"82256","+6281266835959","","peering@centro.net.id","","",""
"82256","+6281266835959","","policy@centro.net.id","","",""
"82256","+62 821 7417 1995","","sales@centro.net.id","","",""
"71882","+1 602 688-6414","","ixp@portal.ninja-ix.net","","",""
"71882","peering@ninja-ix.net","","ixp@portal.ninja-ix.net","","",""
"71882","+1 602 688-6414","","ixp@ops.ninja-ix.net","","",""
"71882","peering@ninja-ix.net","","ixp@ops.ninja-ix.net","","",""
"71882","+1 602 688 6414","","peering@ninja-ix.net","","",""
"71882","peering@ninja-ix.net","","peering@ninja-ix.net","","",""
"71882","+1 602 688 6414","","ixp@ninja-ix.net","","",""
"71882","peering@ninja-ix.net","","ixp@ninja-ix.net","","",""
"50596","+64 9888 9221","","support@ix.nz","","",""
"50596","+64 9888 9221","","accounts@ix.nz","","",""
"50596","+64 9888 9221","","noc@ix.nz","","",""
"72835","55 5211 3060","","noreply@ixp.mx","","",""
"72835","noc@cudi.edu.mx","","noreply@ixp.mx","","",""
"37","+385 1 6165 520","","cix@srce.hr","","",""
"134","","","cixp-support@cern.ch","","Geneva","CH"
"87","","","noc@cnx.net.kh","","",""
"87","+855 61 618 084","","","","",""
"464","","","noc@centraloregonix.org","","",""
"464","noc@centraloregonix.org","","noc@centraloregonix.org","","",""
"522","+506 4020-5000","","soporteix@crix.cr","","",""
"522","info@crix.cr","","soporteix@crix.cr","","",""
"522","contabilidad@crix.cr","","soporteix@crix.cr","","",""
"522","+506 22806453","","noreply2@nic.cr","","",""
"522","soporte@crix.cr","","noreply2@nic.cr","","",""
"69459","","Andrew Gee","hello@cloudsingularity.exchange","","",""
"69459","+1 604-239-6268","","noc@cloudsingularity.exchange","","",""
"69459","noc@cloudsingularity.exchange","","noc@cloudsingularity.exchange","","",""
"69459","+1 604-239-6268","","hello@cloudsingularity.exchange","","",""
"69459","noc@cloudsingularity.exchange","","hello@cloudsingularity.exchange","","",""
"82254","","","peering@cvixp.cv","","",""
"71883","+1 602 688-6414","","ixp@portal.ninja-ix.net","","",""
"71883","peering@ninja-ix.net","","ixp@portal.ninja-ix.net","","",""
"71883","+1 602 688-6414","","ixp@ops.ninja-ix.net","","",""
"71883","peering@ninja-ix.net","","ixp@ops.ninja-ix.net","","",""
"71883","+1 602 688 6414","","peering@ninja-ix.net","","",""
"71883","peering@ninja-ix.net","","peering@ninja-ix.net","","",""
"71883","+1 602 688 6414","","ixp@ninja-ix.net","","",""
"71883","peering@ninja-ix.net","","ixp@ninja-ix.net","","",""
"81138","+17674400627","","info@danix.dm","","",""
"81134","+18002652461","","peering@dartpoints.com","","",""
"81134","+18002652461","","netops@dartpoints.com","","",""
"81134","+18882577462","","info@dartpoints.com","","",""
"81135","+18002652461","","peering@dartpoints.com","","",""
"81136","+18002652461","","peering@dartpoints.com","","",""
"500","+31 20 225 52 50","","info@gblnet.net","","",""
"500","+555 1 555 1234","","ixp-manager@dataix.ru","","",""
"500","noc@dataix.ru","","ixp-manager@dataix.ru","","",""
"500","+31 20 225 54 35","","noc@dataix.eu","","",""
"500","noc@dataix.eu","","noc@dataix.eu","","",""
"90791","+49 351 41898230","","noc@dd-ix.net","","",""
"68656","+917045951002","","techsupport@de-cix.in","","",""
"68656","+919868477444","","operations@de-cix.in","","",""
"68656","+917045951002","","techsupport@mumbai-ix.net","","",""
"68656","techsupport@mumbai-ix.net","","techsupport@mumbai-ix.net","","",""
"68656","techsupport@de-cix.in","","techsupport@de-cix.in","","",""
"679","+917045951002","","techsupport@de-cix.in","","",""
"679","+919868477444","","operations@de-cix.in","","",""
"679","+917045951002","","techsupport@mumbai-ix.net","","",""
"679","techsupport@mumbai-ix.net","","techsupport@mumbai-ix.net","","",""
"679","techsupport@de-cix.in","","techsupport@de-cix.in","","",""
"86261","+917045951002","","techsupport@de-cix.in","","",""
"86261","techsupport@de-cix.in","","techsupport@de-cix.in","","",""
"82250","+4969173090211","","support@de-cix.net","","",""
"82251","+4969173090211","","support@de-cix.net","","",""
"85651","+917045951002","","techsupport@de-cix.in","","",""
"85651","techsupport@de-cix.in","","techsupport@de-cix.in","","",""
"680","+917045951002","","techsupport@de-cix.in","","",""
"680","+919868477444","","operations@de-cix.in","","",""
"680","+917045951002","","techsupport@mumbai-ix.net","","",""
"680","techsupport@mumbai-ix.net","","techsupport@mumbai-ix.net","","",""
"680","techsupport@de-cix.in","","techsupport@de-cix.in","","",""
"82249","+4969173090211","","support@de-cix.net","","",""
"82005","+4940228170219","","support@de-cix.net","","",""
"128","+917045951002","","techsupport@de-cix.in","","",""
"128","+919868477444","","operations@de-cix.in","","",""
"128","+917045951002","","techsupport@mumbai-ix.net","","",""
"128","techsupport@mumbai-ix.net","","techsupport@mumbai-ix.net","","",""
"128","techsupport@de-cix.in","","techsupport@de-cix.in","","",""
"82248","","","support@de-cix.net","","",""
"82247","+4969173090211","","support@de-cix.net","","",""
"78714","+12127966914","","support@de-cix.net","","",""
"78714","+12127966914","","sales@de-cix.net","","",""
"72537","+1 303 848 3737","","noc@denverix.com","","",""
"72537","noc@denverix.com","","noc@denverix.com","","",""
"117","+1 212 796 6914","","support@de-cix.net","","",""
"83288","+6531058405","","noc@digitaledgedc.com","","",""
"454","+49 231 2064 5898","","noc@do-ix.net","","",""
"454","noc@do-ix.net","","noc@do-ix.net","","",""
"71203","+49 69 1730902 11","","support@ruhr-cix.net","","",""
"472","+27 01 050 1200","","ops@inx.net.za","","",""
"472","ops@inx.net.za","","ops@inx.net.za","","",""
"472","+27 01 050 1200","","no-reply@inx.net.za","","",""
"472","27 01 050 1200","","no-reply@inx.net.za","","",""
"472","+27 01 050 1200","","help@inx.net.za","","",""
"472","27 01 050 1200","","help@inx.net.za","","",""
"472","+27 01 050 1200","","noc@inx.net.za","","",""
"472","27 01 050 1200","","noc@inx.net.za","","",""
"472","+27 11 568 1160","","noc@inx.net.za","","",""
"472","27 11 568 1160","","noc@inx.net.za","","",""
"114","+49 69 1730 902 11","","support@de-cix.net","","",""
"114","+49 69 1730 902 0","","billing@de-cix.net","","",""
"395","+971 44524666","","support@uae-ix.net","","",""
"16739","+1 484 393 2326","","noc@e-ix.network","","",""
"16739","noc@e-ix.network","","noc@e-ix.network","","",""
"18970","+61899999999","","noc@edgeix.net","","",""
"18970","noc@edgeix.net","","noc@edgeix.net","","",""
"84940","+61899999999","","noc@edgeix.net","","",""
"84940","noc@edgeix.net","","noc@edgeix.net","","",""
"23737","+61899999999","","noc@edgeix.net","","",""
"23737","noc@edgeix.net","","noc@edgeix.net","","",""
"19004","+61899999999","","noc@edgeix.net","","",""
"19004","noc@edgeix.net","","noc@edgeix.net","","",""
"19005","+61899999999","","noc@edgeix.net","","",""
"19005","noc@edgeix.net","","noc@edgeix.net","","",""
"23739","+61899999999","","noc@edgeix.net","","",""
"23739","noc@edgeix.net","","noc@edgeix.net","","",""
"19006","+61899999999","","noc@edgeix.net","","",""
"19006","noc@edgeix.net","","noc@edgeix.net","","",""
"82238","","","peering@edgeix.net","","",""
"82238","+61899999999","","noc@edgeix.net","","",""
"82238","noc@edgeix.net","","noc@edgeix.net","","",""
"23738","+61899999999","","noc@edgeix.net","","",""
"23738","noc@edgeix.net","","noc@edgeix.net","","",""
"81129","","","noc-int@te.eg","","",""
"81129","+201555201209","","ahmad.abdallah@te.eg","","",""
"15623","+1 111 555 5555","","support@x3me.net","","",""
"15623","+91 1141236699","","support@x3me.net","","",""
"674","+1 111 555 5555","","support@x3me.net","","",""
"674","+91 1141236699","","support@x3me.net","","",""
"15624","+1 111 555 5555","","support@x3me.net","","",""
"15624","+91 1141236699","","support@x3me.net","","",""
"15622","+1 111 555 5555","","support@x3me.net","","",""
"15622","+91 1141236699","","support@x3me.net","","",""
"683","+1 111 555 5555","","support@x3me.net","","",""
"683","+91 1141236699","","support@x3me.net","","",""
"125","+7(495)737-4232","","","","",""
"125","+7(495)737-4232","","support@ix.ru","","",""
"531","","","noc@epix.net.pl","","",""
"442","","","noc@epix.net.pl","","",""
"69613","","Alessandro Martins","amartins@equinix.com","","",""
"69614","","Alessandro Martins","amartins@equinix.com","","",""
"78773","","","noc@era-ix.com","","",""
"78773","","","sales@era-ix.com","","",""
"17770","","","support@eurasiapeering.ru","","",""
"17770","","","sales@eurasiapeering.ru","","",""
"11439","","Bryce Wilson","bryce@thenetworknerds.ca","4072 Quadra St, Victoria, BC","Fremont","US"
"11439","","","helpdesk@evix.org","","",""
"80163","+911141236699","","support@x3me.net","","",""
"80163","+911141236699","","ix@x3me.net","","",""
"89484","+1 808 909 8292","","noc@f4ix.com","","",""
"89484","noc@f4ix.com","","noc@f4ix.com","","",""
"78247","+13176442224","","peering@fd-ix.com","","",""
"78247","","","sales@fd-ix.com","","",""
"79603","","","noc@hoster.ua","","",""
"88873","+555 1 555 1234","","noc@fix-berlin.net","","",""
"88873","noc@fix-berlin.net","","noc@fix-berlin.net","","",""
"73953","","","peering@fmix.net","","",""
"73953","","","info@fmix.net","","",""
"78250","","","op@fogixp.org","","",""
"82022","","","noc@fox.net.tw","","",""
"16","+49 69 1730 902 11","","support@de-cix.net","","",""
"16","+49 69 1730 902 0","","billing@de-cix.net","","",""
"69","","","l2-support@franceix.net","","",""
"69","","","noc@rezopole.net","","",""
"82007","","","noc@franceix.net","","",""
"440","+33 1 70 61 97 74","","l2-support@franceix.net","","",""
"440","+33 1 70 61 97 72","","billing@franceix.net","","",""
"440","","","noc@franceix.net","","",""
"96","+33 1 70 61 97 74","","l2-support@franceix.net","","",""
"96","+33 1 70 61 97 72","","billing@franceix.net","","",""
"96","","","noc@franceix.net","","",""
"92821","+302141001000","","noc@free-ix.gr","","",""
"76183","","","noc@fremix.exchange","","",""
"76183","","","peering@fremix.exchange","","",""
"72720","","Policy","noc@frys-ix.net","","",""
"72720","","Tech","noc@frys-ix.net","","",""
"72720","+31516237000","","noc@frys-ix.net","","",""
"16319","+24104824097","","info@gabix.ga","","",""
"16319","info@gabix.ga","","info@gabix.ga","","",""
"83689","+6285155063215","","noc@garuda-ix.com","","",""
"81123","+380442013136","","noc@giganet.ua","","",""
"81124","+380442013136","","noc@giganet.ua","","",""
"78340","","","helpdesk@glv-ix.lv","","",""
"78340","","","info@glv-ix.lv","","",""
"11338","+30 210-7474274","","noc@gr-ix.gr","","",""
"11339","+30 210-7474274","","noc@gr-ix.gr","","",""
"81698","","","noc@bakker-it.eu","","",""
"69795","","Ivan Morales","imorales@ixp.gt","","",""
"69795","+502-42116750","","noc@ixp.gt","","",""
"69795","noc@ixp.gt","","noc@ixp.gt","","",""
"51","+49 69 1730 902 11","","support@de-cix.net","","",""
"51","+49 69 1730 902 0","","billing@de-cix.net","","",""
"717","+263 4 333 032","","noc@hix.org.zw","","",""
"717","noc@hix.org.zw","","noc@hix.org.zw","","",""
"69612","","Brandon Mulligan","brandon@stlix.net","","",""
"71884","+1 602 688-6414","","ixp@ops.ninja-ix.net","","",""
"71884","peering@ninja-ix.net","","ixp@ops.ninja-ix.net","","",""
"71884","+1 602 688 6414","","peering@ninja-ix.net","","",""
"71884","peering@ninja-ix.net","","peering@ninja-ix.net","","",""
"71884","+1 602 688 6414","","ixp@ninja-ix.net","","",""
"71884","peering@ninja-ix.net","","ixp@ninja-ix.net","","",""
"77698","","","gnoc@icxglobal.net","","",""
"77698","","","sales@icxglobal.net","","",""
"77699","","","gnoc@icxglobal.net","","",""
"77699","","","sales@icxglobal.net","","",""
"77701","","","gnoc@icxglobal.net","","",""
"77701","","","peering@icxglobal.net","","",""
"77701","","","sales@icxglobal.net","","",""
"77700","","","gnoc@icxglobal.net","","",""
"77700","","","peering@icxglobal.net","","",""
"77700","","","sales@icxglobal.net","","",""
"78399","","","gnoc@icxglobal.net","","",""
"78399","","","peering@icxglobal.net","","",""
"78399","","","sales@icxglobal.net","","",""
"77702","","","gnoc@icxglobal.net","","",""
"77702","","","peering@icxglobal.net","","",""
"77702","","","sales@icxglobal.net","","",""
"77703","+442045773383","","gnoc@icxglobal.net","","",""
"77703","+442045773383","","peering@icxglobal.net","","",""
"78398","","","gnoc@icxglobal.net","","",""
"78398","","","peering@icxglobal.net","","",""
"78398","","","sales@icxglobal.net","","",""
"77697","+442045773383","","gnoc@icxglobal.net","","",""
"77697","+442045773383","","peering@icxglobal.net","","",""
"82073","","","admin@ji.iix.net.id","","",""
"82068","+623618947693","","nocadmin@bali.apjii.or.id","","",""
"82068","+623618947693","","peering@bali.apjii.or.id","","",""
"82074","","","noc@banten.apjii.or.id","","",""
"82069","","","admin@jabar.apjii.or.id","","",""
"82072","+6282221222082","","wiwid@jateng.apjii.or.id","","",""
"82071","","","noc@lampung.apjii.or.id","","",""
"82070","","","bph@sumut.apjii.or.id","","",""
"614","+353 1 531 3339","","operations@inex.ie","","",""
"614","+353 1 4332052","","accounts@inex.ie","","",""
"28","+353 1 531 3339","","operations@inex.ie","","",""
"28","+353 1 4332052","","accounts@inex.ie","","",""
"613","+353 1 531 3339","","operations@inex.ie","","",""
"613","+353 1 4332052","","accounts@inex.ie","","",""
"74032","+41 22 510 54 00","","noc@free-ix.net","","",""
"74032","noc@free-ix.net","","noc@free-ix.net","","",""
"86373","+1 111 555 5555","","ixpmanager@ixpmanager.rpd.ne.jp","","",""
"86373","+1 000000000000","","noc@rpd.ne.jp","","",""
"86373","+1 000000000000","","ixpmanager@ixpmanager.rpd.ne.jp","","",""
"86373","+1 000000000000","","noc@inixp.io","","",""
"86373","email only","","noc-as@ops.inixp.io","","",""
"69020","+61 2 8880 0240","","ix@interaus.com.au","","",""
"69020","+61 2 8880 0240","","noc@interaus.com.au","","",""
"69021","+61 2 8880 0240","","ix@interaus.com.au","","",""
"69021","+61 2 8880 0240","","noc@interaus.com.au","","",""
"69022","+61 2 8880 0240","","ix@interaus.com.au","","",""
"69022","+61 2 8880 0240","","noc@interaus.com.au","","",""
"69023","+61 2 8880 0240","","ix@interaus.com.au","","",""
"69023","+61 2 8880 0240","","noc@interaus.com.au","","",""
"69019","+61 2 8880 0240","","ix@interaus.com.au","","",""
"69019","+61 2 8880 0240","","noc@interaus.com.au","","",""
"69024","+61 2 8880 0240","","ix@interaus.com.au","","",""
"69024","+61 2 8880 0240","","noc@interaus.com.au","","",""
"68918","+61 2 8880 0240","","noc@vnpdigital.com","","",""
"68918","noc@vnpdigital.com","","noc@vnpdigital.com","","",""
"68918","+61 2 8880 0240","","ix@interaus.com.au","","",""
"68918","+61 2 8880 0240","","noc@interaus.com.au","","",""
"16802","+507 6566-5934","","soporte@intered.org.pa","","",""
"16802","soporte@intered.org.pa","","soporte@intered.org.pa","","",""
"81993","+31851308330","","noc@inter-ix.net","","",""
"81993","+31 85 130 8330","","noc@inter-ix.net","","",""
"81993","noc@inter-ix.net","","noc@inter-ix.net","","",""
"44","+40728777794","","tech@interlan.ro","","",""
"44","tech@interlan.ro","","tech@interlan.ro","","",""
"44","+40 21 539 75 30","","tech@interlan.ro","","",""
"44","+40 31 710 24 28","","tech@interlan.ro","","",""
"113","+49 69 1730 902 11","","support@de-cix.net","","",""
"91863","981883588","","noc.peru@andespark-ixp.net","","",""
"94326","+61 7 3062 7601","","support@megaport.com","","",""
"548","+61 7 3062 7601","","support@megaport.com","","",""
"579","+61 7 3062 7601","","support@megaport.com","","",""
"86685","+61 7 3062 7601","","support@megaport.com","","",""
"66","+61 7 3062 7601","","support@megaport.com","","",""
"577","+61 7 3062 7601","","support@megaport.com","","",""
"91864","+595 0981005001","","noreply@ixcde.com.py","","",""
"94327","+61 7 3062 7601","","support@megaport.com","","",""
"86683","+61 7 3062 7601","","support@megaport.com","","",""
"581","+61 7 3062 7601","","support@megaport.com","","",""
"618","+555 1 555 1234","","peering@ix-denver.org","","",""
"618","peering@ix-denver.org","","peering@ix-denver.org","","",""
"97","+61 7 3062 7601","","support@megaport.com","","",""
"99","+61 7 3062 7601","","support@megaport.com","","",""
"98","+61 7 3062 7601","","support@megaport.com","","",""
"615","+61 7 3062 7601","","support@megaport.com","","",""
"582","+61 7 3062 7601","","support@megaport.com","","",""
"542","+61 7 3062 7601","","support@megaport.com","","",""
"86686","+61 7 3062 7601","","support@megaport.com","","",""
"115","+61 7 3062 7601","","support@megaport.com","","",""
"86684","+61 7 3062 7601","","support@megaport.com","","",""
"578","+61 7 3062 7601","","support@megaport.com","","",""
"584","+61 7 3062 7601","","support@megaport.com","","",""
"550","+61 7 3062 7601","","support@megaport.com","","",""
"94328","+61 7 3062 7601","","support@megaport.com","","",""
"718","+61 7 3062 7601","","support@megaport.com","","",""
"546","+61 7 3062 7601","","support@megaport.com","","",""
"551","+61 7 3062 7601","","support@megaport.com","","",""
"69189","+1 318 523 1435","","ix42@ix42.org","","",""
"70037","+1 (809) 796-4171","","monitoreo@ixp.org.do","","",""
"70037","+1 (829) 341-9794","","monitoreo@ixp.org.do","","",""
"17603","+5255 5211-3060","","noc.ixp@ixp.mx","","",""
"17603","noc.ixp@ixp.mx","","noc.ixp@ixp.mx","","",""
"96364","","Salvador Vaquero","salvador.vaquero@neutralnetworks.mx","","",""
"96364","+52 81 2165 8060","","noc@nixnetwork.mx","","",""
"96364","noc@nixetwork.mx","","noc@nixnetwork.mx","","",""
"81696","","","tech@ixp-pr.com","","",""
"81696","","","policy@ixp-pr.com","","",""
"12568","","Vladislav Bidikov","vladislav.bidikov@finki.ukim.mk","","",""
"80013","","","noc@ixplay.es","","",""
"73840","+2348093878110","","noc@ixp.net.ng","","",""
"73840","noc@ixp.net.ng","","noc@ixp.net.ng","","",""
"73840","+2348093878110","","ixpmanager@ixp.net.ng","","",""
"73840","noc@ixp.net.ng","","ixpmanager@ixp.net.ng","","",""
"73839","+2348093878110","","noc@ixp.net.ng","","",""
"73839","noc@ixp.net.ng","","noc@ixp.net.ng","","",""
"73839","+2348093878110","","ixpmanager@ixp.net.ng","","",""
"73839","noc@ixp.net.ng","","ixpmanager@ixp.net.ng","","",""
"73841","+2348093878110","","noc@ixp.net.ng","","",""
"73841","noc@ixp.net.ng","","noc@ixp.net.ng","","",""
"73841","+2348093878110","","ixpmanager@ixp.net.ng","","",""
"73841","noc@ixp.net.ng","","ixpmanager@ixp.net.ng","","",""
"62","+2348093878110","","noc@ixp.net.ng","","",""
"62","noc@ixp.net.ng","","noc@ixp.net.ng","","",""
"62","+234 809 3878 110","","noc@ixp.net.ng","","",""
"62","+2348093878110","","ixpmanager@ixp.net.ng","","",""
"62","noc@ixp.net.ng","","ixpmanager@ixp.net.ng","","",""
"17504","+595983463725","","noreply@ix.py","","",""
"17504","noc@ix.py","","noreply@ix.py","","",""
"81137","+5595991272539","","peering@ixrr.com.br","","",""
"74652","+503 7319-6983, +503 2223-5016","","noreply@ixsal.sv","","",""
"74652","soporte@ixsal.sv","","noreply@ixsal.sv","","",""
"70034","+529992927413","","noc@ixsy.org.mx","","",""
"13618","+60383200000","","noc@jbix.my","","",""
"13618","noc@jbix.my","","noc@jbix.my","","",""
"13618","+603 9212 5961","","support@de-cix.my","","",""
"72718","+62 8994605501","","support@jinom.net","","",""
"73","+27 01 050 1200","","ops@inx.net.za","","",""
"73","ops@inx.net.za","","ops@inx.net.za","","",""
"73","+27 01 050 1200","","no-reply@inx.net.za","","",""
"73","27 01 050 1200","","no-reply@inx.net.za","","",""
"73","+27 01 050 1200","","help@inx.net.za","","",""
"73","27 01 050 1200","","help@inx.net.za","","",""
"73","+27 01 050 1200","","noc@inx.net.za","","",""
"73","27 01 050 1200","","noc@inx.net.za","","",""
"73","+27 11 568 1160","","noc@inx.net.za","","",""
"73","27 11 568 1160","","noc@inx.net.za","","",""
"77410","","","support@jpix.ad.jp","","",""
"77410","","","sales@jpix.ad.jp","","",""
"161","+256790884905","Kyle Spencer","kyle@stormzero.com","","",""
"161","+256780246746","Diarmuid O'Briain","diarmuid@obriain.com","","",""
"161","+256790884905","","uixp-admins@googlegroups.com","","",""
"161","+256790884905","","support@googlegroups.com","","",""
"161","+256790884905","","support@uixp.co.ug","","",""
"161","+256783800146","","support@uixp.co.ug","","",""
"161","+256786350675","","support@uixp.co.ug","","",""
"14833","+7 7222604444","","noc@nic.kz","","",""
"14833","+7 7222600006","","ixp-request@nic.kz","","",""
"106","+254 732 614 497","","support@tespok.co.ke","","",""
"16263","+254 732 614 497","","support@tespok.co.ke","","",""
"151","+49 6172 185025","","info@kleyrex.net","","",""
"151","info@kleyrex.net","","info@kleyrex.net","","",""
"81140","","","noc@kskb.eu.org","","",""
"72297","+603 9212 5961","","support@de-cix.my","","",""
"323","+7(495)737-4232","","","","",""
"323","+7(495)737-4232","","support@ix.ru","","",""
"75054","","NOC","noc@august.tw","","",""
"75054","","","noc@lambda-ix.net","","",""
"71888","+1 602 688-6414","","ixp@portal.ninja-ix.net","","",""
"71888","peering@ninja-ix.net","","ixp@portal.ninja-ix.net","","",""
"71888","+1 602 688-6414","","ixp@ops.ninja-ix.net","","",""
"71888","peering@ninja-ix.net","","ixp@ops.ninja-ix.net","","",""
"71888","+1 602 688 6414","","peering@ninja-ix.net","","",""
"71888","peering@ninja-ix.net","","peering@ninja-ix.net","","",""
"71888","+1 602 688 6414","","ixp@ninja-ix.net","","",""
"71888","peering@ninja-ix.net","","ixp@ninja-ix.net","","",""
"7","","","support@linx.net","","",""
"572","","","support@linx.net","","",""
"377","","","support@linx.net","","",""
"437","","","support@linx.net","","",""
"423","","","support@linx.net","","",""
"525","","","support@linx.net","","",""
"91102","+265 999 708 883","","peering@lionex.org","","",""
"13792","+49 69 1730 902 11","","support@de-cix.net","","",""
"13384","+40 373 80 01 01","","lnkix@lnksystems.com","","",""
"15838","+4954191532660","","noc@locix.online","","",""
"15838","noc@locix.online","","noc@locix.online","","",""
"15838","+4954191532660","","no-reply@locix.online","","",""
"15838","noc@locix.online","","no-reply@locix.online","","",""
"15806","","","noc@nlocix.net","","",""
"15806","noc@nlocix.net","","noc@nlocix.net","","",""
"15806","","","no-reply@locix.online","","",""
"15806","noc@locix.online","","no-reply@locix.online","","",""
"26","44 20 3137 8330","","support@lonap.net","","",""
"26","44 20 3137 8330","","accounts@lonap.net","","",""
"26","+44 20 3137 8330","","support@lonap.net","","",""
"26","+44 20 3137 8330","","accounts@lonap.net","","",""
"670","+31 884 450 200","","noc@lsix.net","","",""
"670","noc@lsix.net","","noc@lsix.net","","",""
"143","","","support@lu-cix.lu","","",""
"83826","","","tech@lusakaixp.co.zm","","",""
"458","+49 69 1730 902 11","","support@de-cix.net","","",""
"82004","","","noc@mario.gdn","","",""
"72298","+603 9212 5961","","support@de-cix.my","","",""
"721","+1 956 340 4245","","mca.mexix.manager@mdcdatacenters.com","","",""
"721","customersupport@mdcdatacenters.com","","mca.mexix.manager@mdcdatacenters.com","","",""
"83299","","","noc@mdcdatacenters.com","","",""
"83300","","","wjy@wjy.me","","",""
"227","+39-03...","","noc@minap.it","","",""
"227","+39-02...","","noc@minap.it","","",""
"227","","Marco D'Itri","md@Linux.IT","","",""
"77704","+390240925701","","noc@mix-it.net","","",""
"77704","+390240925701","","info@mix-it.net","","",""
"77704","","","noc@mix-it.net","","",""
"83795","+390240915701","","noc@mix-it.net","","",""
"83795","+390240915701","","info@mix-it.net","","",""
"83795","","","noc@mix-it.net","","",""
"90745","","","noc@mix-it.net","","",""
"67","+39 02 4091 5701","","noc@mix-it.net","","",""
"67","+39 02 4091 5701","","finance@mix-it.net","","",""
"67","","","noc@mix-it.net","","",""
"67","+39 02 4091 5701","","sg@mix-it.net","","",""
"83294","+951652280","","noc@mm-ix.net","","",""
"80012","","","peering@moebee.net","","",""
"111","+49 69 1730 902 11","","support@de-cix.net","","",""
"21","+7(495)737-4232","","","","",""
"21","+7(495)737-4232","","support@ix.ru","","",""
"57","+49 69 1730 902 11","","support@de-cix.net","","",""
"57","+49 69 1730 902 0","","billing@de-cix.net","","",""
"72011","+1 602 688-6414","","ixp@ops.ninja-ix.net","","",""
"72011","peering@ninja-ix.net","","ixp@ops.ninja-ix.net","","",""
"72011","+1 602 688 6414","","peering@ninja-ix.net","","",""
"72011","peering@ninja-ix.net","","peering@ninja-ix.net","","",""
"72011","+1 602 688 6414","","ixp@ninja-ix.net","","",""
"72011","peering@ninja-ix.net","","ixp@ninja-ix.net","","",""
"82077","","","noc@mvixp.org","","",""
"78743","+39 06 44486380","","noc@namex.it","","",""
"78743","+39 06 44486350","","noc@namex.it","","",""
"82252","","","noc@namex.it","","",""
"25","","","noc@namex.it","","",""
"25","+39 06 44486386","","noc@namex.it","","",""
"25","+39 06 44486350","","noc@namex.it","","",""
"25","+39 06 44486380","","noc@namex.it","","",""
"94639","+584146278300","","noc@nap.com.ve","","",""
"94639","+584146278300","","admon@nap.com.ve","","",""
"269","+593 2 225 2495 option 1","","soporte@nap.ec","","",""
"269","","","soporte@nap.ec","","",""
"269","+593 2 2252495","","soporte@nap.ec","","",""
"269","+593 2 2252495","","","","",""
"269","+593 2 225 2495","","soporte@nap.ec","","",""
"217","+593 2 225 2495 option 1","","soporte@nap.ec","","",""
"217","","","soporte@nap.ec","","",""
"217","+593 2 2252495","","soporte@nap.ec","","",""
"217","+593 2 2252495","","","","",""
"217","+593 2 225 2495","","soporte@nap.ec","","",""
"616","+27 11 573 2800","","nap@teraco.co.za","","",""
"616","5555","","nap@teraco.co.za","","",""
"616","+27 11 573 2800","","ix@napafrica.net","","",""
"616","5555","","ix@napafrica.net","","",""
"617","+27 11 573 2800","","nap@teraco.co.za","","",""
"617","5555","","nap@teraco.co.za","","",""
"617","+27 11 573 2800","","ix@napafrica.net","","",""
"617","5555","","ix@napafrica.net","","",""
"76","+27 11 573 2800","","ix@napafrica.net","","",""
"76","5555","","ix@napafrica.net","","",""
"81131","+27115732800","","nap@teraco.co.za","","",""
"76366","","","guchenhui@nnix.cn","","",""
"70900","+44 203 514 3632","","support@ncl-ix.uk","","",""
"338","","","noc@netnod.se","","",""
"338","","","billing@netnod.se","","",""
"338","+46856286000","","info@netnod.se","","",""
"338","+46856286000","","billing@netnod.se","","",""
"338","+4686414580","","noc@netnod.se","","",""
"166","","","noc@netnod.se","","",""
"166","","","billing@netnod.se","","",""
"166","+46856286000","","info@netnod.se","","",""
"166","+46856286000","","billing@netnod.se","","",""
"166","+4686414580","","noc@netnod.se","","",""
"77415","+4686414580","","noc@netnod.se","","",""
"77415","+46856286000","","info@netnod.se","","",""
"77415","+46856286000","","billing@netnod.se","","",""
"208","","","noc@netnod.se","","",""
"208","","","billing@netnod.se","","",""
"208","+46856286000","","info@netnod.se","","",""
"208","+46856286000","","billing@netnod.se","","",""
"208","+4686414580","","noc@netnod.se","","",""
"13","","","noc@netnod.se","","",""
"13","","","billing@netnod.se","","",""
"13","+46856286000","","info@netnod.se","","",""
"13","+46856286000","","billing@netnod.se","","",""
"13","+4686414580","","noc@netnod.se","","",""
"168","","","noc@netnod.se","","",""
"168","","","billing@netnod.se","","",""
"168","+46856286000","","info@netnod.se","","",""
"168","+46856286000","","billing@netnod.se","","",""
"168","+4686414580","","noc@netnod.se","","",""
"44574","+447563552677","","noc@nixbd.net","","",""
"44574","noc@nixbd.net","","noc@nixbd.net","","",""
"23","+420 246 083 470","","nmc@nix.cz","","",""
"23","+420 246 083 460","","billing@nix.cz","","",""
"23","+420 602 149 744","","noc@nix.cz","","",""
"23","+420 246 083 470","","net@nix.cz","","",""
"105","+420 246 083 470","","nmc@nix.cz","","",""
"105","+420 246 083 460","","billing@nix.cz","","",""
"105","+420 602 149 744","","noc@nix.cz","","",""
"105","+420 246 083 470","","net@nix.cz","","",""
"72106","+1 602 688-6414","","ixp@ops.ninja-ix.net","","",""
"72106","peering@ninja-ix.net","","ixp@ops.ninja-ix.net","","",""
"72106","+1 602 688 6414","","peering@ninja-ix.net","","",""
"72106","peering@ninja-ix.net","","peering@ninja-ix.net","","",""
"72106","+1 602 688 6414","","ixp@ninja-ix.net","","",""
"72106","peering@ninja-ix.net","","ixp@ninja-ix.net","","",""
"10508","","","noc@nnenix.net","","",""
"10508","ops@nnenix.net","","noc@nnenix.net","","",""
"56","+977 1 501 2546","","noc@npix.net.np","","",""
"56","noc@npix.net.np","","noc@npix.net.np","","",""
"157","+7(495)737-4232","","","","",""
"157","+7(495)737-4232","","support@ix.ru","","",""
"415","Australia:1300 653 132, international: +61 89200 6141","","support@ix.asn.au","","",""
"415","Australia:1300 653 132, International: +61 89200 6141","","accounts@ix.asn.au","","",""
"415","Australia:1300 793 320, International: +61 89200 4980","","noc@ix.asn.au","","",""
"415","Australia: 1300 653 132, International: +61 89200 6141","","support@ix.asn.au","","",""
"415","Australia: 1300 653 132, International: +61 89200 6141","","accounts@ix.asn.au","","",""
"415","Australia: 1300 793 320, International: +61 89200 4980","","noc@ix.asn.au","","",""
"276","503.914.0700","","noc@nwax.net","","",""
"276","503.914.0700","","finance@nwax.net","","",""
"88","+1 212 796 6914","","support@de-cix.net","","",""
"83289","+62315482700","","support@omadata.com","","",""
"16782","+1 613 555 1234","","noc@ogix.ca","","",""
"16782","noc@ogix.ca","","noc@ogix.ca","","",""
"45705","+14192613268","","noc@ohioix.net","","",""
"45705","555-555-1212","","treasurer@ohioix.net","","",""
"82741","+1 111 555 5555","","provisioning@onix.cx","","",""
"82741","+1 111 555 5555","","no-reply@onix.cx","","",""
"70952","+1 212 796 6914","","support@de-cix.net","","",""
"71858","","","preston@paducahix.net","","",""
"71858","+18553473476","","","","",""
"82075","","","peering@pix.my.id","","",""
"81996","","","salvador@peruix.net","","",""
"81997","","","salvador@peruix.net","","",""
"316","+1 602 688-6414","","ixp@portal.ninja-ix.net","","",""
"316","peering@ninja-ix.net","","ixp@portal.ninja-ix.net","","",""
"316","+1 602 688-6414","","ixp@ops.ninja-ix.net","","",""
"316","peering@ninja-ix.net","","ixp@ops.ninja-ix.net","","",""
"316","+1 602 688 6414","","peering@ninja-ix.net","","",""
"316","peering@ninja-ix.net","","peering@ninja-ix.net","","",""
"316","+1 602 688 6414","","ixp@ninja-ix.net","","",""
"316","peering@ninja-ix.net","","ixp@ninja-ix.net","","",""
"81130","+573238029009","","salvador@pitcolombia.net","","",""
"83687","","","noc@pitcolombia.net","","",""
"77414","","","salvador@pitcolombia.net","","",""
"83688","","","noc@pitcolombia.net","","",""
"426","+591 70634634","","noreply@pitbolivia.org.bo","","",""
"12679","+78126772525","","support@piter-ix.ru","","",""
"12679","+78126772525","","noc@piter-ix.ru","","",""
"78049","","","noc@piter-ix.ru","","",""
"78048","","","noc@piter-ix.eu","","",""
"78052","+78126483888","","noc@piter-ix.ru","","",""
"78052","+79219708093","","kf@piter-ix.eu","","",""
"78050","","","noc@piter-ix.ru","","",""
"78047","+78126483888","","noc@piter-ix.ru","","",""
"78051","","","noc@piter-ix.ru","","",""
"716","+1 412 945 7045","","noc@pit-ix.net","","",""
"716","+1-412-945-7045","","info@pit-ix.net","","",""
"716","+1 412 945 7045","","ixp@pit-ix.net","","",""
"604","+9242111432432","","noc@corp.nexlinx.net.pk","","",""
"604","noc@corp.nexlinx.net.pk","","noc@corp.nexlinx.net.pk","","",""
"110","+49 69 1730 902 11","","support@de-cix.net","","",""
"78912","","","keith@apcs.com.pg","","",""
"78911","","","keith@apcs.com.pg","","",""
"78910","","","keith@apcs.com.pg","","",""
"76549","+5595981113320","","roberto@mprr.mp.br","","",""
"51501","6122040000","","noc@qcix.net","","",""
"51501","noc@qcix.net","","noc@qcix.net","","",""
"118","","","support@qix.ca","","",""
"118","","","billing@qix.ca","","",""
"413","Australia:1300 653 132, international: +61 89200 6141","","support@ix.asn.au","","",""
"413","Australia:1300 653 132, International: +61 89200 6141","","accounts@ix.asn.au","","",""
"413","Australia:1300 793 320, International: +61 89200 4980","","noc@ix.asn.au","","",""
"413","Australia: 1300 653 132, International: +61 89200 6141","","support@ix.asn.au","","",""
"413","Australia: 1300 653 132, International: +61 89200 6141","","accounts@ix.asn.au","","",""
"413","Australia: 1300 793 320, International: +61 89200 4980","","noc@ix.asn.au","","",""
"71885","+1 602 688-6414","","ixp@ops.ninja-ix.net","","",""
"71885","peering@ninja-ix.net","","ixp@ops.ninja-ix.net","","",""
"71885","+1 602 688 6414","","peering@ninja-ix.net","","",""
"71885","peering@ninja-ix.net","","peering@ninja-ix.net","","",""
"71885","+1 602 688 6414","","ixp@ninja-ix.net","","",""
"71885","peering@ninja-ix.net","","ixp@ninja-ix.net","","",""
"78043","+44 3333 402040","","support@rapidix.net","","",""
"468","+43 664 2118451","","noc@rheintal-ix.net","","",""
"468","noc@rheintal-ix.net","","noc@rheintal-ix.net","","",""
"75684","","","support@de-cix.net","","",""
"75684","","","sales@de-cix.net","","",""
"75684","+1 212 796 6914","","support@de-cix.net","","",""
"71886","+1 602 688-6414","","ixp@portal.ninja-ix.net","","",""
"71886","peering@ninja-ix.net","","ixp@portal.ninja-ix.net","","",""
"71886","+1 602 688-6414","","ixp@ops.ninja-ix.net","","",""
"71886","peering@ninja-ix.net","","ixp@ops.ninja-ix.net","","",""
"71886","+1 602 688 6414","","peering@ninja-ix.net","","",""
"71886","peering@ninja-ix.net","","peering@ninja-ix.net","","",""
"71886","+1 602 688 6414","","ixp@ninja-ix.net","","",""
"71886","peering@ninja-ix.net","","ixp@ninja-ix.net","","",""
"40","+354 5782030","","rix@rix.is","","",""
"677","+7(495)737-4232","","","","",""
"677","+7(495)737-4232","","support@ix.ru","","",""
"237","+7(495)737-4232","","","","",""
"237","+7(495)737-4232","","support@ix.ru","","",""
"37580","","","peering@whitehat.ro","","",""
"37580","+4901791271141","","peering@whitehat.ro","","",""
"37580","peering@whitehat.ro","","peering@whitehat.ro","","",""
"37580","+447453443240","","peering@rocix.net","","",""
"37580","+16508702006","","peering@rocix.net","","",""
"69017","+40 371 700 234","","noc@ropnix.com","","",""
"69017","noc@ropnix.com","","noc@ropnix.com","","",""
"69017","+40 371 700 234","","ix@layerbridge.com","","",""
"69017","noc@ropnix.com","","ix@layerbridge.com","","",""
"76178","+380982553322","","noc@rudaki.net","","",""
"84617","+359 886 424 744","","noc@turkix.com.tr","","",""
"84617","noc@turkix.com.tr","","noc@turkix.com.tr","","",""
"84617","+359878193232","","noc@turkix.tr","","",""
"84617","noc@turkix.tr","","noc@turkix.tr","","",""
"412","Australia:1300 653 132, international: +61 89200 6141","","support@ix.asn.au","","",""
"412","Australia:1300 653 132, International: +61 89200 6141","","accounts@ix.asn.au","","",""
"412","Australia:1300 793 320, International: +61 89200 4980","","noc@ix.asn.au","","",""
"412","Australia: 1300 653 132, International: +61 89200 6141","","support@ix.asn.au","","",""
"412","Australia: 1300 653 132, International: +61 89200 6141","","accounts@ix.asn.au","","",""
"412","Australia: 1300 793 320, International: +61 89200 4980","","noc@ix.asn.au","","",""
"73951","+4968194610","","info@saarcix.de","","",""
"71887","+1 602 688-6414","","ixp@portal.ninja-ix.net","","",""
"71887","peering@ninja-ix.net","","ixp@portal.ninja-ix.net","","",""
"71887","+1 602 688-6414","","ixp@ops.ninja-ix.net","","",""
"71887","peering@ninja-ix.net","","ixp@ops.ninja-ix.net","","",""
"71887","+1 602 688 6414","","peering@ninja-ix.net","","",""
"71887","peering@ninja-ix.net","","peering@ninja-ix.net","","",""
"71887","+1 602 688 6414","","ixp@ninja-ix.net","","",""
"71887","peering@ninja-ix.net","","ixp@ninja-ix.net","","",""
"82076","+966920007537","","support@saix.sa","","",""
"82076","+966920007537","","info@saix.sa","","",""
"85866","+18093413000","","noc@stix.do","","",""
"85866","noc@stix.do","","noc@stix.do","","",""
"85866","+18093413000","","peering@stix.do","","",""
"82666","None","","noc@sbg-ix.net","","",""
"81133","","","contact@sbh-ix.fr","","",""
"81133","+590 590 29 80 40","","contact@sbh-ix.fr","","",""
"81133","contact@sbh-ix.fr","","contact@sbh-ix.fr","","",""
"81128","","","peering@sbix.ch","","",""
"81128","","","sales@securebit.ch","","",""
"14843","","","peering@securebit.cloud","","",""
"82253","","","support@septemberix.com","","",""
"277","","","tech-c@sfmix.org","","",""
"277","+1 415 634-6712","","tech-c@sfmix.org","","",""
"74","+65 6991 2136","","support@sgix.sg","","",""
"83825","","","noc@siouix.net","","",""
"666","+1 206-367-4320","","info@seattleix.net","","",""
"666","+1 206-367-4320","","noc@seattleix.net","","",""
"84","+1 206-367-4320","","info@seattleix.net","","",""
"84","+1 206-367-4320","","noc@seattleix.net","","",""
"80165","+18694671426","","amicia.mussenden@gov.kn","","",""
"69107","+1 (915) 800-7107","","admin@skyix.net","","",""
"69107","+1 (915) 800-7107","","noc@skyix.net","","",""
"78397","","","noc@skywolftech.net","","",""
"82023","+590690668899","","peering@smart-ix.fr","","",""
"158","+7(495)737-4232","","","","",""
"158","+7(495)737-4232","","support@ix.ru","","",""
"78044","+46 768 68 49 73","","noc@sonix.network","","",""
"78044","noc@sonix.network","","noc@sonix.network","","",""
"86371","+46 768 68 49 73","","noc@sonix.network","","",""
"86371","noc@sonix.network","","noc@sonix.network","","",""
"74474","","","noc@kamel.network","","",""
"74474","","","peering@kamel.network","","",""
"74474","+46 768 68 49 73","","noc@sonix.network","","",""
"74474","noc@sonix.network","","noc@sonix.network","","",""
"126","+7(495)737-4232","","","","",""
"126","+7(495)737-4232","","support@ix.ru","","",""
"70595","+31(0)887378300","","noc@speed-ix.net","","",""
"70595","+31(0)887378374","","noc@speed-ix.net","","",""
"70595","+31(0)88737899","","peering@speed-ix.net","","",""
"70595","+31(0)887378399","","peering@speed-ix.net","","",""
"70595","+31(0)88 737 83 99","","noc@speed-ix.net","","",""
"70595","+31(0)88 737 83 99","","peering@speed-ix.net","","",""
"11892","+996 312 664400","","support@mail.kg","","",""
"11892","+996 312 664400","","support@sr-ix.asia","","",""
"700","+46 709 968815","","portal@sthix.net","","",""
"699","+46 709 968815","","portal@sthix.net","","",""
"123","+46 709 968815","","portal@sthix.net","","",""
"16915","+46 709 968815","","portal@sthix.net","","",""
"27209","+46 709 968815","","portal@sthix.net","","",""
"69611","","Brandon Mulligan","brandon@stlix.net","","",""
"69611","","","noc@stlix.net","","",""
"84579","+886 920 498 225","","mailer@ixpm.stuix.io","","",""
"84579","noc@stuix.io","","mailer@ixpm.stuix.io","","",""
"201","","","ixpdb@stuttgart-ix.de","","",""
"405","+7(495)737-4232","","","","",""
"405","+7(495)737-4232","","support@ix.ru","","",""
"83293","+62811662925","","noc@sumix.net","","",""
"80164","+5978852222","","j.udit@tas.sr","","",""
"76180","+917065000924","","support@ix.surajnetwork.com","","",""
"42","","","noc@swissix.ch","","",""
"42","","","accounting@swissix.ch","","",""
"42","","","info@swissix.ch","","",""
"42","+41 44 330 70 90","","noc@swissix.ch","","",""
"42","+41 44 330 70 90","","info@swissix.ch","","",""
"16801","+46770-33 90 00 ","","support@interlan.se","","",""
"16801","support@interlan.se","","support@interlan.se","","",""
"72992","+590590432100","","noc@idncom.fr","","",""
"436","+555 1 555 1234","","peering@suprnet.net","","",""
"436","peering@suprnet.net","","peering@suprnet.net","","",""
"81702","","","noc@thescax.net","","",""
"81702","+1 541-469-1000","","noc@thescax.net","","",""
"81702","noc@thescax.net","","noc@thescax.net","","",""
"69817","+302312204204","","noc@thess-ix.net","","",""
"69817","+302312204204","","peering@thess-ix.net","","",""
"69817","+30 2312 204204","","noc@thess-ix.net","","",""
"69817","noc@thess-ix.net","","noc@thess-ix.net","","",""
"86","+48 22 51 56 800","","servicedesk@atman.pl","","",""
"22","","","networking@top-ix.org","","",""
"77","","","support@torix.ca","","",""
"77","","","billing@torix.ca","","",""
"81","+4819333","","cs.pl@orange.com","","",""
"68919","+908502502552","","trix@chronos.com.tr","","",""
"68919","trix@chronos.com.tr","","trix@chronos.com.tr","","",""
"50","+358 44 975 6548","","staff-2017@trex.fi","","",""
"50","+358 29 123 8803","","billing@trex.fi","","",""
"50","+358 45 670 2048","","noc@trex.fi","","",""
"50","+358 44 975 6548","","staff-2018@trex.fi","","",""
"50","+358 44 975 6548","","staff-2020@trex.fi","","",""
"50","+358 44 975 6548","","staff-2022@trex.fi","","",""
"50","+358 50 346 0451","","billing@trex.fi","","",""
"50","+358 44 975 6548","","staff-2023@trex.fi","","",""
"11780","+975 77889977","","admin@btix.bt","","",""
"72107","+1 602 688-6414","","ixp@ops.ninja-ix.net","","",""
"72107","peering@ninja-ix.net","","ixp@ops.ninja-ix.net","","",""
"72107","+1 602 688 6414","","peering@ninja-ix.net","","",""
"72107","peering@ninja-ix.net","","peering@ninja-ix.net","","",""
"72107","+1 602 688 6414","","ixp@ninja-ix.net","","",""
"72107","peering@ninja-ix.net","","ixp@ninja-ix.net","","",""
"14019","","Ozkan Karakas","ozkan@bgds.bg","Buzludzha no 8 Kapitan Andreevo","Haskovo","BG"
"17461","+55 42 3220 3434","","ix@uepg.br","","",""
"90","","","noc@uln-ix.ru","","",""
"414","Australia:1300 653 132, international: +61 89200 6141","","support@ix.asn.au","","",""
"414","Australia:1300 653 132, International: +61 89200 6141","","accounts@ix.asn.au","","",""
"414","Australia:1300 793 320, International: +61 89200 4980","","noc@ix.asn.au","","",""
"414","Australia: 1300 653 132, International: +61 89200 6141","","support@ix.asn.au","","",""
"414","Australia: 1300 653 132, International: +61 89200 6141","","accounts@ix.asn.au","","",""
"414","Australia: 1300 793 320, International: +61 89200 4980","","noc@ix.asn.au","","",""
"70549","","","info@vixp.org","","",""
"231","+7(495)737-4232","","","","",""
"231","+7(495)737-4232","","support@ix.ru","","",""
"45","","","staff@vsix.it","","",""
"45","+39 049 827 8998","","staff@vsix.it","","",""
"45","staff@vsix.it","","staff@vsix.it","","",""
"45","+39 331 620 9590","","staff@vsix.it","","",""
"83","Australia:1300 653 132, international: +61 89200 6141","","support@ix.asn.au","","",""
"83","Australia:1300 653 132, International: +61 89200 6141","","accounts@ix.asn.au","","",""
"83","Australia:1300 793 320, International: +61 89200 4980","","noc@ix.asn.au","","",""
"83","Australia: 1300 653 132, International: +61 89200 6141","","support@ix.asn.au","","",""
"83","Australia: 1300 653 132, International: +61 89200 6141","","accounts@ix.asn.au","","",""
"83","Australia: 1300 793 320, International: +61 89200 4980","","noc@ix.asn.au","","",""
"91692","+64 9888 9221","","support@ix.nz","","",""
"91692","+64 9888 9221","","accounts@ix.nz","","",""
"91692","+64 9888 9221","","noc@ix.nz","","",""
"83827","+919264433761","","noc@wsnl-ix.in","","",""
"83827","+917385851021","","nikhil@wsnl-ix.in","","",""
"84153","+1 438 969 2205","","noc@plactrix.net","","",""
"84153","noc@plactrix.net","","noc@plactrix.net","","",""
